IRIDIUM 155             
1 43573U 18061E   25203.59437963  .00000053  00000+0  11821-4 0  9990
2 43573  86.3987 194.3850 0002059  83.7591 276.3839 14.34217997366127
IRIDIUM 154             
1 43574U 18061F   25204.20326908  .00000039  00000+0  68706-5 0  9995
2 43574  86.3992 194.2480 0002276  88.5604 271.5852 14.34217976366254
IRIDIUM 163             
1 43575U 18061G   25203.48655524  .00000069  00000+0  17503-4 0  9995
2 43575  86.3986 194.4728 0002329  84.6846 275.4615 14.34218294366129
IRIDIUM 156             
1 43576U 18061H   25204.22863872  .00000030  00000+0  36490-5 0  9991
2 43576  86.3989 194.1700 0001929  87.1981 272.9435 14.34217872366216
IRIDIUM 164             
1 43577U 18061J   25204.20961133  .00000122  00000+0  36404-4 0  9995
2 43577  86.3991 194.2130 0002261  94.4095 265.7359 14.34218509366263
IRIDIUM 159             
1 43578U 18061K   25203.54998304  .00000051  00000+0  11022-4 0  9992
2 43578  86.3989 194.4321 0002509  89.9585 270.1898 14.34217760366135
IRIDIUM 180             
1 43922U 19002A   25204.17739169  .00000196  00000+0  63092-4 0  9997
2 43922  86.4001 131.1541 0002317  81.9854 278.1605 14.34219654341876
IRIDIUM 176             
1 43923U 19002B   25203.85543535  .00000848  00000+0  13057-3 0  9991
2 43923  86.6125 131.2784 0002271  70.2799 289.8663 14.72264944350792
IRIDIUM 168             
1 43924U 19002C   25204.17105235  .00000341  00000+0  11484-3 0  9999
2 43924  86.4003 131.2249 0002257  83.1845 276.9607 14.34218140341814
IRIDIUM 173             
1 43925U 19002D   25204.15837246  .00000262  00000+0  86600-4 0  9997
2 43925  86.3999 131.1325 0002233  79.4731 280.6716 14.34219955341805
IRIDIUM 169             
1 43926U 19002E   25203.41876944  .00000270  00000+0  81721-4 0  9992
2 43926  86.4273 163.0276 0001842  47.4390 312.6964 14.38608486342810
IRIDIUM 172             
1 43927U 19002F   25204.22179456 -.00000025  00000+0 -16035-4 0  9993
2 43927  86.4000 131.1128 0002364  81.5424 278.6040 14.34217245341818
IRIDIUM 175             
1 43928U 19002G   25203.71453029  .00000751  00000+0  11523-3 0  9998
2 43928  86.1489  81.8254 0001311 103.2562 256.8800 14.72239167350769
IRIDIUM 171             
1 43929U 19002H   25203.85392220  .00000226  00000+0  73589-4 0  9997
2 43929  86.4009 131.5362 0002045  91.8066 268.3364 14.34217924341757
IRIDIUM 170             
1 43930U 19002J   25203.52179429  .00000852  00000+0  13119-3 0  9994
2 43930  86.6125 131.4221 0002249  79.9885 280.1586 14.72252988350754
IRIDIUM 167             
1 43931U 19002K   25203.49873716 -.00000002  00000+0 -77122-5 0  9996
2 43931  86.4001 131.4343 0001679  87.1161 273.0227 14.34217530341705
IRIDIUM 181             
1 56726U 23068S   25204.20781875  .00000210  00000+0  56252-4 0  9992
2 56726  86.4528 194.1958 0002394 103.1472 256.9996 14.43312035114989
IRIDIUM 177             
1 56727U 23068T   25203.83234551  .00001102  00000+0  14155-3 0  9991
2 56727  86.1993 125.2171 0002207  90.1633 269.9841 14.80223592117641
IRIDIUM 174             
1 56728U 23068U   25203.30552744  .00000853  00000+0  13133-3 0  9998
2 56728  86.6133 131.6262 0002914  75.1150 285.0390 14.72258768117481
IRIDIUM 178             
1 56729U 23068V   25203.95664473  .00001154  00000+0  14843-3 0  9997
2 56729  86.6592 162.9116 0002679  84.0827 276.0700 14.80238191117666
IRIDIUM 179             
1 56730U 23068W   25203.41046521  .00001102  00000+0  14163-3 0  9996
2 56730  86.6841 171.1118 0003073  78.8598 281.2969 14.80226353117587
